1 38858U 12055B   20177.14068143  .00000073  00000-0  00000+0 0  9998
2 38858  54.9823 161.5690 0003970 278.8480  81.0824  1.70473657 47890
1 38858U 12055B   20179.48702741  .00000076  00000-0  00000+0 0  9999
2 38858  54.9829 161.5045 0003948 279.1591  80.7777  1.70473637 47938
1 38858U 12055B   20181.83336448  .00000070  00000-0  00000+0 0  9992
2 38858  54.9832 161.4399 0003909 279.4266  80.5111  1.70473641 47971
1 38858U 12055B   20183.00652415  .00000060  00000-0  00000-0 0  9998
2 38858  54.9834 161.4076 0003887 279.5392  80.3936  1.70473654 48047
1 38858U 12055B   20184.76625610  .00000041  00000-0  00000+0 0  9997
2 38858  54.9834 161.3592 0003856 279.6733  80.2474  1.70473678 48025
1 38858U 12055B   20187.11256868  .00000023  00000-0  00000+0 0  9994
2 38858  54.9840 161.2947 0003794 279.9718  79.9350  1.70473745 48069
1 38858U 12055B   20188.28573195  .00000022  00000-0  00000-0 0  9998
2 38858  54.9838 161.2625 0003793 279.9531  79.9511  1.70473772 48138
1 38858U 12055B   20188.28573206  .00000022  00000-0  00000-0 0  9991
2 38858  54.9838 161.2625 0003784 280.0117  79.8925  1.70473778 48135
1 38858U 12055B   20188.87231555  .00000023  00000-0  00000-0 0  9995
2 38858  54.9836 161.2463 0003790 279.8820  80.0222  1.70473804 48142
1 38858U 12055B   20189.45890080  .00000025  00000-0  00000+0 0  9995
2 38858  54.9837 161.2302 0003784 279.9577  79.9475  1.70473812 48100
1 38858U 12055B   20189.45890080  .00000025  00000-0  00000-0 0  9996
2 38858  54.9837 161.2302 0003784 279.9577  79.9475  1.70473812 48155
1 38858U 12055B   20190.04548722  .00000028  00000-0  00000-0 0  9999
2 38858  54.9837 161.2141 0003780 279.9470  79.9598  1.70473827 48167
1 38858U 12055B   20194.15160204  .00000048  00000-0  00000+0 0  9991
2 38858  54.9830 161.1012 0003717 280.3863  79.5386  1.70473877 48186
1 38858U 12055B   20194.15160204  .00000048  00000-0  00000-0 0  9992
2 38858  54.9830 161.1012 0003717 280.3863  79.5386  1.70473877 48232
1 38858U 12055B   20196.49794014  .00000053  00000-0  00000+0 0  9998
2 38858  54.9834 161.0367 0003693 280.6098  79.3175  1.70473853 48221
1 38858U 12055B   20198.25768314  .00000051  00000-0  00000-0 0  9997
2 38858  54.9835 160.9883 0003683 280.8671  79.0556  1.70473820 48304
1 38858U 12055B   20198.84426544  .00000050  00000-0  00000+0 0  9996
2 38858  54.9849 160.9722 0003604 281.0773  78.8440  1.70473795 48265
1 38858U 12055B   20201.77716651  .00000039  00000-0  00000+0 0  9991
2 38858  54.9836 160.8916 0003520 281.7536  78.1570  1.70473722 48319
1 38858U 12055B   20202.95033270  .00000036  00000-0  00000-0 0  9999
2 38858  54.9837 160.8593 0003491 281.8776  78.0321  1.70473696 48385
1 38858U 12055B   20204.12350419  .00000035  00000-0  00000+0 0  9995
2 38858  54.9842 160.8270 0003453 282.0283  77.8837  1.70473673 48358
1 38858U 12055B   20206.46985904  .00000037  00000-0  00000+0 0  9999
2 38858  54.9871 160.7625 0003354 282.4556  77.4680  1.70473642 48392
1 38858U 12055B   20207.64303489  .00000037  00000-0  00000-0 0  9993
2 38858  54.9862 160.7302 0003338 282.5686  77.3600  1.70473638 48465
1 38858U 12055B   20208.81620655  .00000033  00000-0  00000+0 0  9995
2 38858  54.9863 160.6979 0003299 282.6920  77.2391  1.70473641 48430
1 38858U 12055B   20211.16253228  .00000012  00000-0  00000-0 0  9993
2 38858  54.9868 160.6333 0003216 282.9936  76.9317  1.70473668 48521
1 38858U 12055B   20211.16253235  .00000012  00000-0  00000+0 0  9990
2 38858  54.9868 160.6333 0003218 283.0465  76.8787  1.70473663 48471
1 38858U 12055B   20212.33568894 -.00000001  00000-0  00000-0 0  9990
2 38858  54.9871 160.6010 0003197 283.0748  76.8442  1.70473702 48547
1 38858U 12055B   20215.26859519 -.00000018  00000-0  00000-0 0  9990
2 38858  54.9871 160.5204 0003110 283.2149  76.6964  1.70473775 48540
1 38858U 12055B   20217.02835536 -.00000014  00000-0  00000-0 0  9995
2 38858  54.9873 160.4720 0003067 283.4758  76.4410  1.70473823 48620
1 38858U 12055B   20218.20153443 -.00000007  00000-0  00000+0 0  9997
2 38858  54.9874 160.4397 0003030 283.6371  76.2870  1.70473850 48598
1 38858U 12055B   20218.20153443 -.00000007  00000-0  00000-0 0  9998
2 38858  54.9874 160.4397 0003030 283.6371  76.2870  1.70473850 48644
1 38858U 12055B   20218.78812525 -.00000004  00000-0  00000-0 0  9991
2 38858  54.9875 160.4236 0003004 283.7439  76.1845  1.70473860 48657
1 38858U 12055B   20219.96130652  .00000003  00000-0  00000-0 0  9994
2 38858  54.9875 160.3914 0002958 283.8887  76.0483  1.70473871 48675
1 38858U 12055B   20221.13448659  .00000008  00000-0  00000+0 0  9999
2 38858  54.9876 160.3592 0002910 284.2066  75.7381  1.70473878 48647
1 38858U 12055B   20222.30766275  .00000011  00000-0  00000-0 0  9991
2 38858  54.9877 160.3269 0002877 284.2946  75.6558  1.70473878 48711
1 38858U 12055B   20223.48083516  .00000013  00000-0  00000+0 0  9992
2 38858  54.9877 160.2947 0002845 284.5106  75.4431  1.70473865 48689
1 38858U 12055B   20224.06741988  .00000014  00000-0  00000-0 0  9993
2 38858  54.9878 160.2785 0002828 284.6409  75.3135  1.70473856 48745
1 38858U 12055B   20225.82716899  .00000013  00000-0  00000+0 0  9999
2 38858  54.9880 160.2301 0002763 285.0192  74.9342  1.70473823 48721
1 38858U 12055B   20228.17349644  .00000007  00000-0  00000+0 0  9993
2 38858  54.9882 160.1656 0002666 285.5826  74.3667  1.70473776 48761
1 38858U 12055B   20229.93324830  .00000002  00000-0  00000-0 0  9994
2 38858  54.9884 160.1172 0002596 285.8772  74.0726  1.70473738 48841
1 38858U 12055B   20231.10642218  .00000001  00000-0  00000+0 0  9997
2 38858  54.9884 160.0849 0002553 286.0421  73.9117  1.70473716 48813
1 38858U 12055B   20231.10642242  .00000001  00000-0  00000-0 0  9995
2 38858  54.9885 160.0849 0002546 286.1581  73.7958  1.70473712 48866
1 38858U 12055B   20232.86619127  .00000004  00000-0  00000-0 0  9998
2 38858  54.9886 160.0364 0002494 286.3536  73.6111  1.70473690 48891
1 38858U 12055B   20233.45278192  .00000005  00000-0  00000+0 0  9997
2 38858  54.9886 160.0203 0002477 286.4306  73.5384  1.70473685 48851
1 38858U 12055B   20234.03937259  .00000007  00000-0  00000-0 0  9991
2 38858  54.9887 160.0041 0002454 286.5744  73.3988  1.70473680 48914
1 38858U 12055B   20235.79913891  .00000006  00000-0  00000-0 0  9990
2 38858  54.9888 159.9556 0002388 286.8624  73.1201  1.70473680 48892
1 38858U 12055B   20236.97230940 -.00000001  00000-0  00000-0 0  9994
2 38858  54.9888 159.9233 0002342 287.0621  72.9222  1.70473683 48965
1 38858U 12055B   20238.14547364 -.00000011  00000-0  00000+0 0  9996
2 38858  54.9889 159.8911 0002297 287.1296  72.8529  1.70473699 48939
1 38858U 12055B   20238.14547364 -.00000011  00000-0  00000-0 0  9997
2 38858  54.9889 159.8911 0002297 287.1296  72.8529  1.70473699 48984
1 38858U 12055B   20239.90521480 -.00000029  00000-0  00000-0 0  9992
2 38858  54.9890 159.8426 0002231 287.3219  72.6546  1.70473724 49013
1 38858U 12055B   20245.77107862 -.00000024  00000-0  00000+0 0  9992
2 38858  54.9895 159.6812 0002030 287.9815  72.0118  1.70473866 49061
1 38858U 12055B   20246.94426184 -.00000016  00000-0  00000-0 0  9995
2 38858  54.9896 159.6489 0001983 288.2228  71.7805  1.70473887 49130
1 38858U 12055B   20251.05038463  .00000001  00000-0  00000+0 0  9994
2 38858  54.9899 159.5360 0001833 289.1762  70.8506  1.70473886 49156
1 38858U 12055B   20252.81013663  .00000003  00000-0  00000-0 0  9997
2 38858  54.9901 159.4875 0001770 289.8519  70.1760  1.70473867 49230
1 38858U 12055B   20255.15646713  .00000001  00000-0  00000+0 0  9992
2 38858  54.9903 159.4231 0001663 290.9129  69.1127  1.70473818 49229
1 38858U 12055B   20258.08939248 -.00000000  00000-0  00000+0 0  9995
2 38858  54.9906 159.3424 0001538 291.7831  68.2472  1.70473759 49277
1 38858U 12055B   20259.84916043  .00000005  00000-0  00000-0 0  9993
2 38858  54.9908 159.2939 0001487 292.1725  67.8684  1.70473734 49351
1 38858U 12055B   20261.02234215  .00000009  00000-0  00000+0 0  9993
2 38858  54.9910 159.2615 0001445 292.5696  67.4801  1.70473719 49327
1 38858U 12055B   20262.78211038  .00000012  00000-0  00000-0 0  9990
2 38858  54.9912 159.2130 0001379 293.0643  66.9960  1.70473711 49406
1 38858U 12055B   20263.95528211  .00000009  00000-0  00000+0 0  9999
2 38858  54.9913 159.1805 0001328 293.5394  66.5238  1.70473714 49370
1 38858U 12055B   20265.12844730  .00000002  00000-0  00000-0 0  9991
2 38858  54.9914 159.1482 0001277 293.8151  66.2470  1.70473728 49447
1 38858U 12055B   20265.71502829 -.00000003  00000-0  00000-0 0  9998
2 38858  54.9913 159.1321 0001252 293.9354  66.1249  1.70473726 49459
1 38858U 12055B   20267.47476807 -.00000018  00000-0  00000+0 0  9994
2 38858  54.9914 159.0836 0001179 294.1547  65.8990  1.70473756 49435
1 38858U 12055B   20269.82109693 -.00000025  00000-0  00000+0 0  9999
2 38858  54.9908 159.0190 0001120 293.4830  66.5675  1.70473810 49477
1 38858U 12055B   20270.99427073 -.00000020  00000-0  00000-0 0  9990
2 38858  54.9915 158.9867 0001078 294.0405  66.0139  1.70473835 49546
1 38858U 12055B   20272.16744971 -.00000012  00000-0  00000-0 0  9991
2 38858  54.9923 158.9543 0001025 294.9762  65.0852  1.70473860 49564
1 38858U 12055B   20273.92722139  .00000003  00000-0  00000-0 0  9997
2 38858  54.9924 158.9059 0000966 295.4434  64.6311  1.70473889 49591
1 38858U 12055B   20274.51381224  .00000007  00000-0  00000-0 0  9993
2 38858  54.9925 158.8897 0000937 295.6735  64.4054  1.70473899 49600
1 38858U 12055B   20275.10040194  .00000011  00000-0  00000-0 0  9992
2 38858  54.9927 158.8736 0000918 294.5454  65.5376  1.70473903 49615
1 38858U 12055B   20275.68699122  .00000015  00000-0  00000-0 0  9990
2 38858  54.9927 158.8575 0000899 294.5790  65.5075  1.70473907 49628
1 38858U 12055B   20278.03333882  .00000026  00000-0  00000+0 0  9991
2 38858  54.9930 158.7929 0000827 295.7358  64.3593  1.70473904 49616
